{
  "type": "FeatureCollection",
  "features": [
    {
      "type": "Feature",
      "properties": {
        "norad_id": 35000,
        "name": "COSMOS 2251 DEB",
        "group": "cosmos-2251-debris",
        "lat": -52.573426897169774,
        "lon": 176.61364487803576,
        "alt_km": 295.80835407693394,
        "timestamp": "2025-12-12T09:49:09.127793+00:00",
        "meta_object_name": "COSMOS 2251 DEB",
        "meta_object_id": "1993-036AFY",
        "meta_epoch": "2025-12-10T00:39:45.535104",
        "meta_mean_motion": 15.84722247,
        "meta_eccentricity": 0.00096992,
        "meta_inclination": 73.9939,
        "meta_ra_of_asc_node": 204.1935,
        "meta_arg_of_pericenter": 175.3945,
        "meta_mean_anomaly": 184.7377,
        "meta_ephemeris_type": 0,
        "meta_classification_type": "U",
        "meta_norad_cat_id": 35000,
        "meta_element_set_no": 999,
        "meta_rev_at_epoch": 88472,
        "meta_bstar": 0.007821664,
        "meta_mean_motion_dot": 0.0209211,
        "meta_mean_motion_ddot": 0,
        "tle_line1": "1 35000U 93036AFY 25344.02761036  .02092110  00000+0  78217-2 0  9993",
        "tle_line2": "2 35000  73.9939 204.1935 0009699 175.3945 184.7377 15.84722247884729"
      },
      "geometry": {
        "type": "Point",
        "coordinates": [
          176.61364487803576,
          -52.573426897169774
        ]
      }
    },
    {
      "type": "Feature",
      "properties": {
        "norad_id": 35012,
        "name": "COSMOS 2251 DEB",
        "group": "cosmos-2251-debris",
        "lat": 37.71764551212522,
        "lon": -80.45131114785043,
        "alt_km": 758.6566660588078,
        "timestamp": "2025-12-12T09:49:09.127803+00:00",
        "meta_object_name": "COSMOS 2251 DEB",
        "meta_object_id": "1993-036AFZ",
        "meta_epoch": "2025-12-12T00:51:32.883264",
        "meta_mean_motion": 14.45547305,
        "meta_eccentricity": 0.0081657,
        "meta_inclination": 74.0195,
        "meta_ra_of_asc_node": 113.0496,
        "meta_arg_of_pericenter": 253.3622,
        "meta_mean_anomaly": 105.8559,
        "meta_ephemeris_type": 0,
        "meta_classification_type": "U",
        "meta_norad_cat_id": 35012,
        "meta_element_set_no": 999,
        "meta_rev_at_epoch": 87551,
        "meta_bstar": 0.0002889,
        "meta_mean_motion_dot": 1.033e-05,
        "meta_mean_motion_ddot": 0,
        "tle_line1": "1 35012U 93036AFZ 25346.03579726  .00001033  00000+0  28890-3 0  9997",
        "tle_line2": "2 35012  74.0195 113.0496 0081657 253.3622 105.8559 14.45547305875510"
      },
      "geometry": {
        "type": "Point",
        "coordinates": [
          -80.45131114785043,
          37.71764551212522
        ]
      }
    },
    {
      "type": "Feature",
      "properties": {
        "norad_id": 35014,
        "name": "COSMOS 2251 DEB",
        "group": "cosmos-2251-debris",
        "lat": -31.232763932102934,
        "lon": -125.79274067442891,
        "alt_km": 645.0758074518471,
        "timestamp": "2025-12-12T09:49:09.127813+00:00",
        "meta_object_name": "COSMOS 2251 DEB",
        "meta_object_id": "1993-036AGB",
        "meta_epoch": "2025-12-10T11:17:04.408224",
        "meta_mean_motion": 14.75108648,
        "meta_eccentricity": 0.0007489,
        "meta_inclination": 73.9993,
        "meta_ra_of_asc_node": 47.9831,
        "meta_arg_of_pericenter": 224.1256,
        "meta_mean_anomaly": 135.932,
        "meta_ephemeris_type": 0,
        "meta_classification_type": "U",
        "meta_norad_cat_id": 35014,
        "meta_element_set_no": 999,
        "meta_rev_at_epoch": 71303,
        "meta_bstar": 0.0024781418,
        "meta_mean_motion_dot": 0.00016732,
        "meta_mean_motion_ddot": 0,
        "tle_line1": "1 35014U 93036AGB 25344.47018991  .00016732  00000+0  24781-2 0  9993",
        "tle_line2": "2 35014  73.9993  47.9831 0007489 224.1256 135.9320 14.75108648713038"
      },
      "geometry": {
        "type": "Point",
        "coordinates": [
          -125.79274067442891,
          -31.232763932102934
        ]
      }
    },
    {
      "type": "Feature",
      "properties": {
        "norad_id": 35015,
        "name": "COSMOS 2251 DEB",
        "group": "cosmos-2251-debris",
        "lat": -73.03917346670842,
        "lon": 164.60626800594326,
        "alt_km": 794.9963681079025,
        "timestamp": "2025-12-12T09:49:09.127824+00:00",
        "meta_object_name": "COSMOS 2251 DEB",
        "meta_object_id": "1993-036AGC",
        "meta_epoch": "2025-12-08T23:19:05.687904",
        "meta_mean_motion": 14.46841193,
        "meta_eccentricity": 0.0074204,
        "meta_inclination": 73.9478,
        "meta_ra_of_asc_node": 241.8046,
        "meta_arg_of_pericenter": 111.6456,
        "meta_mean_anomaly": 265.9615,
        "meta_ephemeris_type": 0,
        "meta_classification_type": "U",
        "meta_norad_cat_id": 35015,
        "meta_element_set_no": 999,
        "meta_rev_at_epoch": 65386,
        "meta_bstar": 0.00095869,
        "meta_mean_motion_dot": 3.57e-05,
        "meta_mean_motion_ddot": 0,
        "tle_line1": "1 35015U 93036AGC 25342.97159361  .00003570  00000+0  95869-3 0  9996",
        "tle_line2": "2 35015  73.9478 241.8046 0074204 111.6456 265.9615 14.46841193653863"
      },
      "geometry": {
        "type": "Point",
        "coordinates": [
          164.60626800594326,
          -73.03917346670842
        ]
      }
    },
    {
      "type": "Feature",
      "properties": {
        "norad_id": 35016,
        "name": "COSMOS 2251 DEB",
        "group": "cosmos-2251-debris",
        "lat": -44.96348654852109,
        "lon": -81.69886649817647,
        "alt_km": 795.4722028012538,
        "timestamp": "2025-12-12T09:49:09.127834+00:00",
        "meta_object_name": "COSMOS 2251 DEB",
        "meta_object_id": "1993-036AGD",
        "meta_epoch": "2025-12-11T20:48:12.574944",
        "meta_mean_motion": 14.35057734,
        "meta_eccentricity": 0.0114569,
        "meta_inclination": 73.9299,
        "meta_ra_of_asc_node": 296.0331,
        "meta_arg_of_pericenter": 213.2015,
        "meta_mean_anomaly": 177.618,
        "meta_ephemeris_type": 0,
        "meta_classification_type": "U",
        "meta_norad_cat_id": 35016,
        "meta_element_set_no": 999,
        "meta_rev_at_epoch": 86770,
        "meta_bstar": 0.00052208,
        "meta_mean_motion_dot": 1.575e-05,
        "meta_mean_motion_ddot": 0,
        "tle_line1": "1 35016U 93036AGD 25345.86681221  .00001575  00000+0  52208-3 0  9996",
        "tle_line2": "2 35016  73.9299 296.0331 0114569 213.2015 177.6180 14.35057734867707"
      },
      "geometry": {
        "type": "Point",
        "coordinates": [
          -81.69886649817647,
          -44.96348654852109
        ]
      }
    },
    {
      "type": "Feature",
      "properties": {
        "norad_id": 35018,
        "name": "COSMOS 2251 DEB",
        "group": "cosmos-2251-debris",
        "lat": 42.09478287296285,
        "lon": -84.52073946776261,
        "alt_km": 1111.2660123493415,
        "timestamp": "2025-12-12T09:49:09.127844+00:00",
        "meta_object_name": "COSMOS 2251 DEB",
        "meta_object_id": "1993-036AGF",
        "meta_epoch": "2025-12-11T15:37:13.751904",
        "meta_mean_motion": 13.67111419,
        "meta_eccentricity": 0.03485154,
        "meta_inclination": 73.9756,
        "meta_ra_of_asc_node": 111.7752,
        "meta_arg_of_pericenter": 21.1953,
        "meta_mean_anomaly": 340.32,
        "meta_ephemeris_type": 0,
        "meta_classification_type": "U",
        "meta_norad_cat_id": 35018,
        "meta_element_set_no": 999,
        "meta_rev_at_epoch": 83171,
        "meta_bstar": 0.0010764193,
        "meta_mean_motion_dot": 1.351e-05,
        "meta_mean_motion_ddot": 0,
        "tle_line1": "1 35018U 93036AGF 25345.65085361  .00001351  00000+0  10764-2 0  9990",
        "tle_line2": "2 35018  73.9756 111.7752 0348515  21.1953 340.3200 13.67111419831713"
      },
      "geometry": {
        "type": "Point",
        "coordinates": [
          -84.52073946776261,
          42.09478287296285
        ]
      }
    },
    {
      "type": "Feature",
      "properties": {
        "norad_id": 35020,
        "name": "COSMOS 2251 DEB",
        "group": "cosmos-2251-debris",
        "lat": 14.289687106574776,
        "lon": -156.2396763152865,
        "alt_km": 653.3010105255817,
        "timestamp": "2025-12-12T09:49:09.127855+00:00",
        "meta_object_name": "COSMOS 2251 DEB",
        "meta_object_id": "1993-036AGH",
        "meta_epoch": "2025-12-11T00:55:30.154944",
        "meta_mean_motion": 14.62800781,
        "meta_eccentricity": 0.00911638,
        "meta_inclination": 74.0465,
        "meta_ra_of_asc_node": 202.2067,
        "meta_arg_of_pericenter": 316.7345,
        "meta_mean_anomaly": 42.6686,
        "meta_ephemeris_type": 0,
        "meta_classification_type": "U",
        "meta_norad_cat_id": 35020,
        "meta_element_set_no": 999,
        "meta_rev_at_epoch": 88213,
        "meta_bstar": 0.00021287557,
        "meta_mean_motion_dot": 1.119e-05,
        "meta_mean_motion_ddot": 0,
        "tle_line1": "1 35020U 93036AGH 25345.03854346  .00001119  00000+0  21288-3 0  9998",
        "tle_line2": "2 35020  74.0465 202.2067 0091163 316.7345  42.6686 14.62800781882137"
      },
      "geometry": {
        "type": "Point",
        "coordinates": [
          -156.2396763152865,
          14.289687106574776
        ]
      }
    }
  ]
}